{"1":{"id":0,"longitude":15.9530886,"latitude":45.7979994,"street":"Kineska cetvrt","number":"11","city":"Novi Sad","zipcode":21000},"2":{"id":0,"longitude":19.8331895,"latitude":45.2596599,"street":"Bulevar oslobodjenja","number":"43","city":"Novi Sad","zipcode":21000},"3":{"id":3,"longitude":19.8468698,"latitude":45.2425708,"street":"Bulevar Narodnog fronta","number":"2","city":"Novi Sad","zipcode":21000},"4":{"id":4,"longitude":19.8468698,"latitude":45.2425708,"street":"Bulevar Narodnog fronta","number":"2","city":"Novi Sad","zipcode":21000},"5":{"id":5,"longitude":19.8468698,"latitude":45.2425708,"street":"Bulevar Narodnog fronta","number":"2","city":"Novi Sad","zipcode":21000},"6":{"id":6,"longitude":0.0,"latitude":0.0,"zipcode":0},"7":{"id":7,"longitude":19.8468698,"latitude":45.2425708,"street":"Bulevar Narodnog fronta","number":"2","city":"Novi Sad","zipcode":21000},"8":{"id":8,"longitude":19.8468698,"latitude":45.2425708,"street":"Bulevar Narodnog fronta","number":"2","city":"Novi Sad","zipcode":21000},"9":{"id":9,"longitude":19.8468698,"latitude":45.2425708,"street":"Bulevar Narodnog fronta","number":"2","city":"Novi Sad","zipcode":21000},"10":{"id":10,"longitude":19.8468698,"latitude":45.2425708,"street":"Bulevar Narodnog fronta","number":"2","city":"Novi Sad","zipcode":21000},"11":{"id":11,"longitude":19.8468698,"latitude":45.2425708,"street":"Bulevar Narodnog fronta","number":"2","city":"Novi Sad","zipcode":21000},"12":{"id":12,"longitude":19.8468698,"latitude":45.2425708,"street":"Bulevar Narodnog fronta","number":"2","city":"Novi Sad","zipcode":21000},"13":{"id":13,"longitude":19.8468698,"latitude":45.2425708,"street":"Bulevar Narodnog fronta","number":"2","city":"Novi Sad","zipcode":21000},"14":{"id":14,"longitude":19.8468698,"latitude":45.2425708,"street":"Bulevar Narodnog fronta","number":"2","city":"Novi Sad","zipcode":21000},"15":{"id":15,"longitude":19.8468698,"latitude":45.2425708,"street":"Bulevar Narodnog fronta","number":"2","city":"Novi Sad","zipcode":21000},"16":{"id":16,"longitude":0.0,"latitude":0.0,"zipcode":0},"17":{"id":17,"longitude":19.8468698,"latitude":45.2425708,"street":"Bulevar Narodnog fronta","number":"2","city":"Novi Sad","zipcode":21000},"18":{"id":18,"longitude":19.8468698,"latitude":45.2425708,"street":"Bulevar Narodnog fronta","number":"2","city":"Novi Sad","zipcode":21000},"19":{"id":19,"longitude":19.8468698,"latitude":45.2425708,"street":"Bulevar Narodnog fronta","number":"2","city":"Novi Sad","zipcode":21000},"20":{"id":20,"longitude":19.8468698,"latitude":45.2425708,"street":"Bulevar Narodnog fronta","number":"2","city":"Novi Sad","zipcode":21000},"21":{"id":21,"longitude":0.0,"latitude":0.0,"zipcode":0},"22":{"id":22,"longitude":0.0,"latitude":0.0,"zipcode":0},"23":{"id":23,"longitude":0.0,"latitude":0.0,"zipcode":0},"24":{"id":24,"longitude":0.0,"latitude":0.0,"zipcode":0},"25":{"id":25,"longitude":0.0,"latitude":0.0,"zipcode":0},"26":{"id":26,"longitude":0.0,"latitude":0.0,"street":"Bulevar Narodnog fronta","number":"2","city":"Novi Sad","zipcode":21000},"27":{"id":27,"longitude":0.0,"latitude":0.0,"street":"Bulevar Narodnog fronta","number":"2","city":"Novi Sad","zipcode":21000},"28":{"id":28,"longitude":19.8468698,"latitude":45.2425708,"street":"Bulevar Narodnog fronta","number":"2","city":"Novi Sad","zipcode":21000},"29":{"id":29,"longitude":19.842649,"latitude":45.2416479,"street":"Bulevar Narodnog fronta","number":"1","city":"Novi Sad","zipcode":21000},"30":{"id":30,"longitude":0.0,"latitude":0.0,"street":"Bulevar Narodnog fronta","number":"2","city":"Novi Sad","zipcode":21000},"31":{"id":31,"longitude":19.8468698,"latitude":45.2425708,"street":"Bulevar Narodnog fronta","number":"2","city":"Novi Sad","zipcode":21000},"32":{"id":32,"longitude":19.8468698,"latitude":45.2425708,"street":"Bulevar Narodnog fronta","number":"2","city":"Novi Sad","zipcode":21000},"33":{"id":33,"longitude":0.0,"latitude":0.0,"street":"Bulevar Narodnog fronta","number":"2","city":"Novi Sad","zipcode":21000},"34":{"id":34,"longitude":0.0,"latitude":0.0,"street":"Bulevar Narodnog fronta","number":"2","city":"Novi Sad","zipcode":21000}}